DMSP 5D-2 F14 (USA 131) 
1 24753U 97012A   20121.04421665 -.00000035  00000-0  54124-5 0  9994
2 24753  99.0245 137.1450 0008480 350.4616   9.6395 14.15887557191619
NOAA 15                 
1 25338U 98030A   20121.15888698  .00000050  00000-0  39359-4 0  9998
2 25338  98.7214 146.4452 0011191  48.3965 311.8172 14.25961394142350
DMSP 5D-3 F15 (USA 147) 
1 25991U 99067A   20121.18697317 -.00000083  00000-0 -18819-4 0  9999
2 25991  98.9655  92.1964 0008911 235.5907 135.0723 14.16488448 53615
METEOSAT-8 (MSG-1)      
1 27509U 02040B   20121.00303789  .00000139  00000-0  00000+0 0  9997
2 27509   6.6421  54.2927 0001472 334.8519 231.7008  1.00271374 64792
DMSP 5D-3 F16 (USA 172) 
1 28054U 03048A   20121.23720243 -.00000087  00000-0 -22693-4 0  9996
2 28054  98.9087 100.4701 0007718   8.1773   3.1741 14.13660877852974
NOAA 18                 
1 28654U 05018A   20121.20770856  .00000074  00000-0  64867-4 0  9996
2 28654  99.0483 177.1747 0014236  11.7705 348.3796 14.12506541770105
METEOSAT-9 (MSG-2)      
1 28912U 05049B   20121.17374837  .00000018  00000-0  00000-0 0  9995
2 28912   4.3240  70.2988 0001341 343.0434 231.2209  1.00267020 52588
HIMAWARI-7 (MTSAT-2)    
1 28937U 06004A   20121.84798759 -.00000245  00000-0  00000+0 0  9993
2 28937   0.0324  38.3834 0001463  24.9267 246.2632  1.00273002 51908
FORMOSAT-3 FM6          
1 29047U 06011A   20121.72579536  .00000020  00000-0  24199-4 0  9991
2 29047  71.9791 207.4026 0049453 145.7870 214.6470 14.28728059734527
FORMOSAT-3 FM1          
1 29048U 06011B   20121.11342695  .00000040  00000-0  32036-4 0  9990
2 29048  71.9643 119.6231 0041847 103.8788 256.7008 14.28694064736904
FORMOSAT-3 FM5          
1 29049U 06011C   20121.88725279  .00000089  00000-0  51432-4 0  9992
2 29049  72.0197 289.4157 0033993 130.7362 229.6735 14.28776809732803
FORMOSAT-3 FM3          
1 29050U 06011D   20121.89855487  .00000120  00000-0  35586-4 0  9998
2 29050  72.0155  80.3508 0048283  49.8552 310.6814 14.58903351749495
FORMOSAT-3 FM4          
1 29051U 06011E   20121.18816153  .00000051  00000-0  35867-4 0  9993
2 29051  72.0057 192.9919 0068059   6.8184 353.3861 14.28805825735293
FORMOSAT-3 FM2          
1 29052U 06011F   20120.77134901  .00000086  00000-0  49840-4 0  9996
2 29052  72.0340 267.8964 0038729  90.6132 269.9443 14.28910268732749
GOES 13                 
1 29155U 06018A   20121.17306257  .00000037  00000-0  00000-0 0  9994
2 29155   0.2561 269.7440 0004186 298.2223 134.0644  1.00272361 20913
METOP-A                 
1 29499U 06044A   20121.14185807 -.00000003  00000-0  18016-4 0  9991
2 29499  98.5275 169.5746 0001649  81.2587 298.9325 14.21496346701848
DMSP 5D-3 F17 (USA 191) 
1 29522U 06050A   20121.01503630 -.00000021  00000-0  11772-4 0  9991
2 29522  98.8045 138.1374 0009028 321.0209  39.0312 14.14022674695884
FENGYUN 3A              
1 32958U 08026A   20120.96838040 -.00000005  00000-0  17360-4 0  9993
2 32958  98.4041 109.2226 0009796 114.4690 245.7509 14.18624241617956
FENGYUN 2E              
1 33463U 08066A   20120.97485058 -.00000200  00000-0  00000+0 0  9992
2 33463   4.2417  68.6329 0003352 295.6742 291.3315  1.00279574 41634
NOAA 19                 
1 33591U 09005A   20121.20816990  .00000045  00000-0  49952-4 0  9998
2 33591  99.1968 125.2993 0013492 207.4237 152.6223 14.12405211578327
GOES 14                 
1 35491U 09033A   20121.85674395 -.00000098  00000-0  00000+0 0  9997
2 35491   0.2079  97.9712 0008097 128.8353 196.7206  1.00271077 39717
METEOR-M 1              
1 35865U 09049A   20121.88989625  .00000034  00000-0  33956-4 0  9997
2 35865  98.4366 110.9587 0002056   2.4551 357.6637 14.22235669551150
DMSP 5D-3 F18 (USA 210) 
1 35951U 09057A   20121.18079196  .00000083  00000-0  66757-4 0  9997
2 35951  98.6434 112.6991 0011784 141.3217 218.8802 14.13261420543193
GOES 15                 
1 36411U 10008A   20121.24280207  .00000053  00000-0  00000-0 0  9993
2 36411   0.2310 275.1416 0002181 132.8551 129.8473  1.00267809 37227
COMS 1                  
1 36744U 10032A   20120.98322524 -.00000346  00000-0  00000+0 0  9993
2 36744   0.0113 225.0286 0000985 177.2345 298.2583  1.00269689 36206
FENGYUN 3B              
1 37214U 10059A   20121.93313659 -.00000009  00000-0  18674-4 0  9997
2 37214  99.0430 102.9440 0017807  43.9830 316.2762 14.15946033490954
SUOMI NPP               
1 37849U 11061A   20121.20463831  .00000001  00000-0  21395-4 0  9998
2 37849  98.7337  59.7817 0001401  73.7667  57.6088 14.19550105440787
FENGYUN 2F              
1 38049U 12002A   20121.91324003 -.00000360  00000-0  00000+0 0  9996
2 38049   1.9540  83.4409 0002619  63.5534 153.3579  1.00278397 30448
METEOSAT-10 (MSG-3)     
1 38552U 12035B   20121.60555900  .00000057  00000-0  00000+0 0  9991
2 38552   0.9959   9.0007 0000761 356.7119  80.4415  1.00270348 28770
METOP-B                 
1 38771U 12049A   20121.20342081 -.00000006  00000-0  17398-4 0  9997
2 38771  98.6959 181.2349 0002054 120.5455 306.5135 14.21491301395168
FENGYUN 3C              
1 39260U 13052A   20121.85384968 -.00000023  00000-0  93930-5 0  9993
2 39260  98.5553 174.1200 0010885 359.3416   0.7742 14.15836946341886
METEOR-M 2              
1 40069U 14037A   20121.29941422 -.00000042  00000-0  10022-6 0  9991
2 40069  98.5077 160.6433 0006827  66.8610 293.3291 14.20671896301377
HIMAWARI-8              
1 40267U 14060A   20121.24932560 -.00000277  00000-0  00000-0 0  9994
2 40267   0.0383  99.9834 0000555 284.7763  64.3325  1.00272688 20301
FENGYUN 2G              
1 40367U 14090A   20121.91646498 -.00000302  00000-0  00000+0 0  9992
2 40367   1.9709  95.2164 0003216 346.2393 207.2542  1.00267049 19592
METEOSAT-11 (MSG-4)     
1 40732U 15034A   20121.10125535 -.00000005  00000-0  00000+0 0  9992
2 40732   0.4702 214.9077 0000973 255.1159 144.7267  1.00275732 17587
ELEKTRO-L 2             
1 41105U 15074A   20121.11643440 -.00000098  00000-0  00000+0 0  9994
2 41105   1.0848  97.8722 0002651 329.6505 268.9117  1.00271290 16062
HIMAWARI-9              
1 41836U 16064A   20121.24932479 -.00000277  00000-0  00000-0 0  9992
2 41836   0.0097 238.5001 0000704 135.0000  75.6784  1.00270104 12734
GOES 16                 
1 41866U 16071A   20121.32856880 -.00000251  00000-0  00000+0 0  9994
2 41866   0.0157 280.3023 0001014 152.5315 189.0040  1.00269877 12652
FENGYUN 4A              
1 41882U 16077A   20121.26569500 -.00000333  00000-0  00000-0 0  9993
2 41882   0.1671 287.0398 0005531 219.1492 272.8740  1.00272501 12538
CYGFM05                 
1 41884U 16078A   20121.89316419  .00000356  00000-0  20555-4 0  9999
2 41884  34.9576 355.3841 0016028 337.5943  22.4067 15.14604402186891
CYGFM04                 
1 41885U 16078B   20121.02291412  .00000377  00000-0  21359-4 0  9996
2 41885  34.9508 354.2473 0014361 339.1971  20.8155 15.15113605186827
CYGFM02                 
1 41886U 16078C   20121.87236866  .00000366  00000-0  20799-4 0  9997
2 41886  34.9600 350.6649 0015085 342.9920  17.0285 15.15115131186947
CYGFM01                 
1 41887U 16078D   20121.92184409  .00000340  00000-0  19789-4 0  9998
2 41887  34.9543 356.2693 0016462 338.7585  21.2441 15.14417354186880
CYGFM08                 
1 41888U 16078E   20121.06991262  .00000345  00000-0  19837-4 0  9996
2 41888  34.9514 357.5460 0015652 337.4702  22.5321 15.14831273186782
CYGFM06                 
1 41889U 16078F   20121.06034968  .00000349  00000-0  19943-4 0  9990
2 41889  34.9593 354.4015 0014114 335.6379  24.3664 15.15108050186820
CYGFM07                 
1 41890U 16078G   20121.89537113  .00000348  00000-0  19858-4 0  9997
2 41890  34.9531 348.3262 0013748 345.9173  14.1154 15.15108027186957
CYGFM03                 
1 41891U 16078H   20121.03400724  .00000371  00000-0  21054-4 0  9998
2 41891  34.9564 353.9124 0013349 337.0241  22.9872 15.15103180186823
FENGYUN 3D              
1 43010U 17072A   20121.86763636  .00000006  00000-0  23576-4 0  9999
2 43010  98.7481  61.7482 0000878 166.7233 193.3982 14.19741186127441
NOAA 20                 
1 43013U 17073A   20121.00327961  .00000013  00000-0  26733-4 0  9992
2 43013  98.7149  59.7088 0001491  95.2442 264.8904 14.19552552126785
GOES 17                 
1 43226U 18022A   20121.71983806  .00000094  00000-0  00000+0 0  9990
2 43226   0.0125 276.0053 0000541 113.9713 311.0812  1.00271758  7986
FENGYUN 2H              
1 43491U 18050A   20121.11704505 -.00000131  00000-0  00000+0 0  9999
2 43491   0.7726 275.8570 0002701 214.9487 209.0333  1.00275728  7058
METOP-C                 
1 43689U 18087A   20121.15701555 -.00000008  00000-0  16380-4 0  9990
2 43689  98.7021 181.4426 0003259 115.1851 244.9664 14.21488595 76731
GEO-KOMPSAT-2A          
1 43823U 18100A   20121.84467263 -.00000348  00000-0  00000+0 0  9991
2 43823   0.0354  88.1100 0001956 345.4208 218.0412  1.00269753  5218
IOD-1 GEMS              
1 44385U 98067QK  20120.98879113  .00016255  00000-0  21184-3 0  9993
2 44385  51.6401 216.0595 0001799 131.0523 229.0626 15.58875885 46920
METEOR-M2 2             
1 44387U 19038A   20121.85728702 -.00000015  00000-0  12417-4 0  9998
2 44387  98.6155  82.8553 0002016  46.6001 313.5345 14.23678482 42767
